{
  "type": "FeatureCollection",
  "features": [
    {
      "type": "Feature",
      "properties": {
        "norad_id": 29268,
        "name": "ARIRANG-2 (KOMPSAT-2)",
        "group": "resource",
        "lat": 80.3466341113039,
        "lon": 132.87174950100444,
        "alt_km": 680.5331304264464,
        "timestamp": "2025-12-24T22:42:21.678651+00:00",
        "meta_object_name": "ARIRANG-2 (KOMPSAT-2)",
        "meta_object_id": "2006-031A",
        "meta_epoch": "2025-12-24T08:07:37.154208",
        "meta_mean_motion": 14.64503479,
        "meta_eccentricity": 0.00131452,
        "meta_inclination": 97.8254,
        "meta_ra_of_asc_node": 186.2459,
        "meta_arg_of_pericenter": 269.1572,
        "meta_mean_anomaly": 214.452,
        "meta_ephemeris_type": 0,
        "meta_classification_type": "U",
        "meta_norad_cat_id": 29268,
        "meta_element_set_no": 999,
        "meta_rev_at_epoch": 3588,
        "meta_bstar": 9.0663567e-05,
        "meta_mean_motion_dot": 4.36e-06,
        "meta_mean_motion_ddot": 0,
        "tle_line1": "1 29268U 06031A   25358.33862447  .00000436  00000+0  90664-4 0  9998",
        "tle_line2": "2 29268  97.8254 186.2459 0013145 269.1572 214.4520 14.64503479 35880"
      },
      "geometry": {
        "type": "Point",
        "coordinates": [
          132.87174950100444,
          80.3466341113039
        ]
      }
    },
    {
      "type": "Feature",
      "properties": {
        "norad_id": 29709,
        "name": "LAPAN-TUBSAT",
        "group": "resource",
        "lat": -48.07181663297991,
        "lon": 160.19979236254767,
        "alt_km": 627.4020619610119,
        "timestamp": "2025-12-24T22:42:21.678663+00:00",
        "meta_object_name": "LAPAN-TUBSAT",
        "meta_object_id": "2007-001A",
        "meta_epoch": "2025-12-24T05:30:58.817088",
        "meta_mean_motion": 14.85688106,
        "meta_eccentricity": 0.00132997,
        "meta_inclination": 98.1262,
        "meta_ra_of_asc_node": 348.6228,
        "meta_arg_of_pericenter": 40.0682,
        "meta_mean_anomaly": 320.1511,
        "meta_ephemeris_type": 0,
        "meta_classification_type": "U",
        "meta_norad_cat_id": 29709,
        "meta_element_set_no": 999,
        "meta_rev_at_epoch": 2517,
        "meta_bstar": 9.0248426e-05,
        "meta_mean_motion_dot": 7.26e-06,
        "meta_mean_motion_ddot": 0,
        "tle_line1": "1 29709U 07001A   25358.22984742  .00000726  00000+0  90248-4 0  9997",
        "tle_line2": "2 29709  98.1262 348.6228 0013299  40.0682 320.1511 14.85688106 25179"
      },
      "geometry": {
        "type": "Point",
        "coordinates": [
          160.19979236254767,
          -48.07181663297991
        ]
      }
    },
    {
      "type": "Feature",
      "properties": {
        "norad_id": 31113,
        "name": "HAIYANG-1B",
        "group": "resource",
        "lat": -52.33068891411039,
        "lon": 151.77713363262342,
        "alt_km": 801.7132457308162,
        "timestamp": "2025-12-24T22:42:21.678674+00:00",
        "meta_object_name": "HAIYANG-1B",
        "meta_object_id": "2007-010A",
        "meta_epoch": "2025-12-24T04:50:17.446848",
        "meta_mean_motion": 14.30968707,
        "meta_eccentricity": 0.00136545,
        "meta_inclination": 98.3328,
        "meta_ra_of_asc_node": 342.0068,
        "meta_arg_of_pericenter": 5.2041,
        "meta_mean_anomaly": 354.9282,
        "meta_ephemeris_type": 0,
        "meta_classification_type": "U",
        "meta_norad_cat_id": 31113,
        "meta_element_set_no": 999,
        "meta_rev_at_epoch": 97560,
        "meta_bstar": 5.8730082e-05,
        "meta_mean_motion_dot": 1.13e-06,
        "meta_mean_motion_ddot": 0,
        "tle_line1": "1 31113U 07010A   25358.20159082  .00000113  00000+0  58730-4 0  9998",
        "tle_line2": "2 31113  98.3328 342.0068 0013654   5.2041 354.9282 14.30968707975603"
      },
      "geometry": {
        "type": "Point",
        "coordinates": [
          151.77713363262342,
          -52.33068891411039
        ]
      }
    },
    {
      "type": "Feature",
      "properties": {
        "norad_id": 31598,
        "name": "COSMO-SKYMED 1",
        "group": "resource",
        "lat": -82.051282176976,
        "lon": -78.52035761612608,
        "alt_km": 587.9880400298343,
        "timestamp": "2025-12-24T22:42:21.678685+00:00",
        "meta_object_name": "COSMO-SKYMED 1",
        "meta_object_id": "2007-023A",
        "meta_epoch": "2025-12-24T07:03:28.931904",
        "meta_mean_motion": 14.9584984,
        "meta_eccentricity": 0.00013371,
        "meta_inclination": 97.884,
        "meta_ra_of_asc_node": 183.7697,
        "meta_arg_of_pericenter": 78.543,
        "meta_mean_anomaly": 281.5941,
        "meta_ephemeris_type": 0,
        "meta_classification_type": "U",
        "meta_norad_cat_id": 31598,
        "meta_element_set_no": 999,
        "meta_rev_at_epoch": 363,
        "meta_bstar": 0.00029869861,
        "meta_mean_motion_dot": 3.278e-05,
        "meta_mean_motion_ddot": 0,
        "tle_line1": "1 31598U 07023A   25358.29408486  .00003278  00000+0  29870-3 0  9990",
        "tle_line2": "2 31598  97.8840 183.7697 0001337  78.5430 281.5941 14.95849840  3630"
      },
      "geometry": {
        "type": "Point",
        "coordinates": [
          -78.52035761612608,
          -82.051282176976
        ]
      }
    },
    {
      "type": "Feature",
      "properties": {
        "norad_id": 31698,
        "name": "TERRASAR-X",
        "group": "resource",
        "lat": -48.13404618744222,
        "lon": 175.75842220032973,
        "alt_km": 516.3709134940809,
        "timestamp": "2025-12-24T22:42:21.678696+00:00",
        "meta_object_name": "TERRASAR-X",
        "meta_object_id": "2007-026A",
        "meta_epoch": "2025-12-23T12:30:19.023264",
        "meta_mean_motion": 15.19149386,
        "meta_eccentricity": 0.00017705,
        "meta_inclination": 97.4442,
        "meta_ra_of_asc_node": 2.7437,
        "meta_arg_of_pericenter": 81.4954,
        "meta_mean_anomaly": 278.6481,
        "meta_ephemeris_type": 0,
        "meta_classification_type": "U",
        "meta_norad_cat_id": 31698,
        "meta_element_set_no": 999,
        "meta_rev_at_epoch": 2655,
        "meta_bstar": 4.2968524e-05,
        "meta_mean_motion_dot": 8.35e-06,
        "meta_mean_motion_ddot": 0,
        "tle_line1": "1 31698U 07026A   25357.52105351  .00000835  00000+0  42969-4 0  9995",
        "tle_line2": "2 31698  97.4442   2.7437 0001770  81.4954 278.6481 15.19149386 26559"
      },
      "geometry": {
        "type": "Point",
        "coordinates": [
          175.75842220032973,
          -48.13404618744222
        ]
      }
    },
    {
      "type": "Feature",
      "properties": {
        "norad_id": 32060,
        "name": "WORLDVIEW-1 (WV-1)",
        "group": "resource",
        "lat": 77.79135985776179,
        "lon": -26.933787528524398,
        "alt_km": 487.19842046535723,
        "timestamp": "2025-12-24T22:42:21.678707+00:00",
        "meta_object_name": "WORLDVIEW-1 (WV-1)",
        "meta_object_id": "2007-041A",
        "meta_epoch": "2025-12-24T06:30:41.321376",
        "meta_mean_motion": 15.23940962,
        "meta_eccentricity": 0.00032498,
        "meta_inclination": 97.3827,
        "meta_ra_of_asc_node": 115.5844,
        "meta_arg_of_pericenter": 358.1364,
        "meta_mean_anomaly": 1.9861,
        "meta_ephemeris_type": 0,
        "meta_classification_type": "U",
        "meta_norad_cat_id": 32060,
        "meta_element_set_no": 999,
        "meta_rev_at_epoch": 1623,
        "meta_bstar": 0.00037398001,
        "meta_mean_motion_dot": 8.976e-05,
        "meta_mean_motion_ddot": 0,
        "tle_line1": "1 32060U 07041A   25358.27131159  .00008976  00000+0  37398-3 0  9997",
        "tle_line2": "2 32060  97.3827 115.5844 0003249 358.1364   1.9861 15.23940962 16233"
      },
      "geometry": {
        "type": "Point",
        "coordinates": [
          -26.933787528524398,
          77.79135985776179
        ]
      }
    },
    {
      "type": "Feature",
      "properties": {
        "norad_id": 32289,
        "name": "YAOGAN-3",
        "group": "resource",
        "lat": -38.08700267876403,
        "lon": -160.7350949732803,
        "alt_km": 605.2845597570767,
        "timestamp": "2025-12-24T22:42:21.678718+00:00",
        "meta_object_name": "YAOGAN-3",
        "meta_object_id": "2007-055A",
        "meta_epoch": "2025-12-24T07:13:20.527392",
        "meta_mean_motion": 14.89911234,
        "meta_eccentricity": 0.00012556,
        "meta_inclination": 97.8351,
        "meta_ra_of_asc_node": 24.8211,
        "meta_arg_of_pericenter": 84.78,
        "meta_mean_anomaly": 275.3561,
        "meta_ephemeris_type": 0,
        "meta_classification_type": "U",
        "meta_norad_cat_id": 32289,
        "meta_element_set_no": 999,
        "meta_rev_at_epoch": 97981,
        "meta_bstar": 0.00025619649,
        "meta_mean_motion_dot": 2.409e-05,
        "meta_mean_motion_ddot": 0,
        "tle_line1": "1 32289U 07055A   25358.30093203  .00002409  00000+0  25620-3 0  9996",
        "tle_line2": "2 32289  97.8351  24.8211 0001255  84.7800 275.3561 14.89911234979812"
      },
      "geometry": {
        "type": "Point",
        "coordinates": [
          -160.7350949732803,
          -38.08700267876403
        ]
      }
    }
  ]
}